{
  "type": "FeatureCollection",
  "features": [
    {
      "type": "Feature",
      "properties": {
        "norad_id": 28890,
        "name": "BEIJING 1",
        "group": "dmc",
        "lat": 77.86915294499558,
        "lon": 83.58806594888999,
        "alt_km": 664.8934877008223,
        "timestamp": "2025-12-24T14:43:28.662282+00:00",
        "meta_object_name": "BEIJING 1",
        "meta_object_id": "2005-043A",
        "meta_epoch": "2025-12-24T07:47:30.466752",
        "meta_mean_motion": 14.63375374,
        "meta_eccentricity": 0.00158125,
        "meta_inclination": 98.2665,
        "meta_ra_of_asc_node": 125.8597,
        "meta_arg_of_pericenter": 107.3104,
        "meta_mean_anomaly": 252.9829,
        "meta_ephemeris_type": 0,
        "meta_classification_type": "U",
        "meta_norad_cat_id": 28890,
        "meta_element_set_no": 999,
        "meta_rev_at_epoch": 7507,
        "meta_bstar": 3.9729131e-05,
        "meta_mean_motion_dot": 1.57e-06,
        "meta_mean_motion_ddot": 0,
        "tle_line1": "1 28890U 05043A   25358.32465818  .00000157  00000+0  39729-4 0  9995",
        "tle_line2": "2 28890  98.2665 125.8597 0015812 107.3104 252.9829 14.63375374 75074"
      },
      "geometry": {
        "type": "Point",
        "coordinates": [
          83.58806594888999,
          77.86915294499558
        ]
      }
    },
    {
      "type": "Feature",
      "properties": {
        "norad_id": 33320,
        "name": "HUANJING 1A (HJ-1A)",
        "group": "dmc",
        "lat": -62.27800381109737,
        "lon": 151.58784546656852,
        "alt_km": 631.0559249047155,
        "timestamp": "2025-12-24T14:43:28.662308+00:00",
        "meta_object_name": "HUANJING 1A (HJ-1A)",
        "meta_object_id": "2008-041A",
        "meta_epoch": "2025-12-24T07:09:18.126144",
        "meta_mean_motion": 14.83428691,
        "meta_eccentricity": 0.00193171,
        "meta_inclination": 97.6547,
        "meta_ra_of_asc_node": 346.1142,
        "meta_arg_of_pericenter": 357.6206,
        "meta_mean_anomaly": 2.4913,
        "meta_ephemeris_type": 0,
        "meta_classification_type": "U",
        "meta_norad_cat_id": 33320,
        "meta_element_set_no": 999,
        "meta_rev_at_epoch": 93247,
        "meta_bstar": 0.00018243951,
        "meta_mean_motion_dot": 1.451e-05,
        "meta_mean_motion_ddot": 0,
        "tle_line1": "1 33320U 08041A   25358.29812646  .00001451  00000+0  18244-3 0  9997",
        "tle_line2": "2 33320  97.6547 346.1142 0019317 357.6206   2.4913 14.83428691932472"
      },
      "geometry": {
        "type": "Point",
        "coordinates": [
          151.58784546656852,
          -62.27800381109737
        ]
      }
    },
    {
      "type": "Feature",
      "properties": {
        "norad_id": 33321,
        "name": "HUANJING 1B (HJ-1B)",
        "group": "dmc",
        "lat": 77.57841646729567,
        "lon": -47.46697792870984,
        "alt_km": 593.4155058339065,
        "timestamp": "2025-12-24T14:43:28.662323+00:00",
        "meta_object_name": "HUANJING 1B (HJ-1B)",
        "meta_object_id": "2008-041B",
        "meta_epoch": "2025-12-24T06:16:09.920352",
        "meta_mean_motion": 14.82850093,
        "meta_eccentricity": 0.00377933,
        "meta_inclination": 97.6403,
        "meta_ra_of_asc_node": 349.7454,
        "meta_arg_of_pericenter": 39.1893,
        "meta_mean_anomaly": 321.2047,
        "meta_ephemeris_type": 0,
        "meta_classification_type": "U",
        "meta_norad_cat_id": 33321,
        "meta_element_set_no": 999,
        "meta_rev_at_epoch": 93248,
        "meta_bstar": 0.00019406429,
        "meta_mean_motion_dot": 1.539e-05,
        "meta_mean_motion_ddot": 0,
        "tle_line1": "1 33321U 08041B   25358.26122593  .00001539  00000+0  19406-3 0  9998",
        "tle_line2": "2 33321  97.6403 349.7454 0037793  39.1893 321.2047 14.82850093932486"
      },
      "geometry": {
        "type": "Point",
        "coordinates": [
          -47.46697792870984,
          77.57841646729567
        ]
      }
    },
    {
      "type": "Feature",
      "properties": {
        "norad_id": 33446,
        "name": "YAOGAN-4",
        "group": "dmc",
        "lat": -13.875031900313344,
        "lon": -69.43241993430526,
        "alt_km": 621.5160415385544,
        "timestamp": "2025-12-24T14:43:28.662336+00:00",
        "meta_object_name": "YAOGAN-4",
        "meta_object_id": "2008-061A",
        "meta_epoch": "2025-12-24T06:41:21.910848",
        "meta_mean_motion": 14.82714813,
        "meta_eccentricity": 0.00129966,
        "meta_inclination": 97.9197,
        "meta_ra_of_asc_node": 288.2655,
        "meta_arg_of_pericenter": 282.4259,
        "meta_mean_anomaly": 77.55,
        "meta_ephemeris_type": 0,
        "meta_classification_type": "U",
        "meta_norad_cat_id": 33446,
        "meta_element_set_no": 999,
        "meta_rev_at_epoch": 91974,
        "meta_bstar": 0.0001734889,
        "meta_mean_motion_dot": 1.348e-05,
        "meta_mean_motion_ddot": 0,
        "tle_line1": "1 33446U 08061A   25358.27872582  .00001348  00000+0  17349-3 0  9991",
        "tle_line2": "2 33446  97.9197 288.2655 0012996 282.4259  77.5500 14.82714813919742"
      },
      "geometry": {
        "type": "Point",
        "coordinates": [
          -69.43241993430526,
          -13.875031900313344
        ]
      }
    },
    {
      "type": "Feature",
      "properties": {
        "norad_id": 35681,
        "name": "DEIMOS-1",
        "group": "dmc",
        "lat": 34.22704110900644,
        "lon": -16.04388750890716,
        "alt_km": 642.9303712297797,
        "timestamp": "2025-12-24T14:43:28.662348+00:00",
        "meta_object_name": "DEIMOS-1",
        "meta_object_id": "2009-041A",
        "meta_epoch": "2025-12-24T07:33:20.179296",
        "meta_mean_motion": 14.74969193,
        "meta_eccentricity": 0.00025047,
        "meta_inclination": 97.7155,
        "meta_ra_of_asc_node": 158.3796,
        "meta_arg_of_pericenter": 60.8153,
        "meta_mean_anomaly": 299.3307,
        "meta_ephemeris_type": 0,
        "meta_classification_type": "U",
        "meta_norad_cat_id": 35681,
        "meta_element_set_no": 999,
        "meta_rev_at_epoch": 88110,
        "meta_bstar": 0.00010490674,
        "meta_mean_motion_dot": 6.58e-06,
        "meta_mean_motion_ddot": 0,
        "tle_line1": "1 35681U 09041A   25358.31481689  .00000658  00000+0  10491-3 0  9996",
        "tle_line2": "2 35681  97.7155 158.3796 0002504  60.8153 299.3307 14.74969193881106"
      },
      "geometry": {
        "type": "Point",
        "coordinates": [
          -16.04388750890716,
          34.22704110900644
        ]
      }
    },
    {
      "type": "Feature",
      "properties": {
        "norad_id": 35683,
        "name": "UK-DMC 2",
        "group": "dmc",
        "lat": -9.268350125067427,
        "lon": -48.10965862449903,
        "alt_km": 647.3871817635445,
        "timestamp": "2025-12-24T14:43:28.662359+00:00",
        "meta_object_name": "UK-DMC 2",
        "meta_object_id": "2009-041C",
        "meta_epoch": "2025-12-24T07:21:37.101888",
        "meta_mean_motion": 14.75644939,
        "meta_eccentricity": 0.00015596,
        "meta_inclination": 97.8573,
        "meta_ra_of_asc_node": 132.8835,
        "meta_arg_of_pericenter": 92.6805,
        "meta_mean_anomaly": 267.4583,
        "meta_ephemeris_type": 0,
        "meta_classification_type": "U",
        "meta_norad_cat_id": 35683,
        "meta_element_set_no": 999,
        "meta_rev_at_epoch": 88077,
        "meta_bstar": 0.00013693875,
        "meta_mean_motion_dot": 8.86e-06,
        "meta_mean_motion_ddot": 0,
        "tle_line1": "1 35683U 09041C   25358.30667942  .00000886  00000+0  13694-3 0  9996",
        "tle_line2": "2 35683  97.8573 132.8835 0001559  92.6805 267.4583 14.75644939880773"
      },
      "geometry": {
        "type": "Point",
        "coordinates": [
          -48.10965862449903,
          -9.268350125067427
        ]
      }
    },
    {
      "type": "Feature",
      "properties": {
        "norad_id": 40715,
        "name": "DMC3-FM1",
        "group": "dmc",
        "lat": -62.05135280606819,
        "lon": -119.91600139204398,
        "alt_km": 616.7608421030554,
        "timestamp": "2025-12-24T14:43:28.662370+00:00",
        "meta_object_name": "DMC3-FM1",
        "meta_object_id": "2015-032A",
        "meta_epoch": "2025-12-24T06:55:28.567776",
        "meta_mean_motion": 14.85458614,
        "meta_eccentricity": 0.00040419,
        "meta_inclination": 97.6683,
        "meta_ra_of_asc_node": 225.0599,
        "meta_arg_of_pericenter": 273.9267,
        "meta_mean_anomaly": 86.1486,
        "meta_ephemeris_type": 0,
        "meta_classification_type": "U",
        "meta_norad_cat_id": 40715,
        "meta_element_set_no": 999,
        "meta_rev_at_epoch": 56394,
        "meta_bstar": 5.7021766e-05,
        "meta_mean_motion_dot": 4.4e-06,
        "meta_mean_motion_ddot": 0,
        "tle_line1": "1 40715U 15032A   25358.28852509  .00000440  00000+0  57022-4 0  9997",
        "tle_line2": "2 40715  97.6683 225.0599 0004041 273.9267  86.1486 14.85458614563941"
      },
      "geometry": {
        "type": "Point",
        "coordinates": [
          -119.91600139204398,
          -62.05135280606819
        ]
      }
    },
    {
      "type": "Feature",
      "properties": {
        "norad_id": 40716,
        "name": "DMC3-FM2",
        "group": "dmc",
        "lat": 3.066114833832881,
        "lon": 47.23872303909743,
        "alt_km": 615.4704800283598,
        "timestamp": "2025-12-24T14:43:28.662381+00:00",
        "meta_object_name": "DMC3-FM2",
        "meta_object_id": "2015-032B",
        "meta_epoch": "2025-12-24T05:50:51.086112",
        "meta_mean_motion": 14.85459118,
        "meta_eccentricity": 0.00046834,
        "meta_inclination": 97.6739,
        "meta_ra_of_asc_node": 226.4684,
        "meta_arg_of_pericenter": 280.378,
        "meta_mean_anomaly": 79.6907,
        "meta_ephemeris_type": 0,
        "meta_classification_type": "U",
        "meta_norad_cat_id": 40716,
        "meta_element_set_no": 999,
        "meta_rev_at_epoch": 56393,
        "meta_bstar": 6.8573428e-05,
        "meta_mean_motion_dot": 5.4e-06,
        "meta_mean_motion_ddot": 0,
        "tle_line1": "1 40716U 15032B   25358.24364683  .00000540  00000+0  68573-4 0  9999",
        "tle_line2": "2 40716  97.6739 226.4684 0004683 280.3780  79.6907 14.85459118563932"
      },
      "geometry": {
        "type": "Point",
        "coordinates": [
          47.23872303909743,
          3.066114833832881
        ]
      }
    },
    {
      "type": "Feature",
      "properties": {
        "norad_id": 40717,
        "name": "DMC3-FM3",
        "group": "dmc",
        "lat": 59.78980473866003,
        "lon": -144.9331863349016,
        "alt_km": 608.5662019664887,
        "timestamp": "2025-12-24T14:43:28.662392+00:00",
        "meta_object_name": "DMC3-FM3",
        "meta_object_id": "2015-032C",
        "meta_epoch": "2025-12-24T06:22:08.192640",
        "meta_mean_motion": 14.85445838,
        "meta_eccentricity": 0.00039711,
        "meta_inclination": 97.6793,
        "meta_ra_of_asc_node": 228.1303,
        "meta_arg_of_pericenter": 280.7987,
        "meta_mean_anomaly": 79.2781,
        "meta_ephemeris_type": 0,
        "meta_classification_type": "U",
        "meta_norad_cat_id": 40717,
        "meta_element_set_no": 999,
        "meta_rev_at_epoch": 56394,
        "meta_bstar": 0.00011096377,
        "meta_mean_motion_dot": 9.05e-06,
        "meta_mean_motion_ddot": 0,
        "tle_line1": "1 40717U 15032C   25358.26537260  .00000905  00000+0  11096-3 0  9997",
        "tle_line2": "2 40717  97.6793 228.1303 0003971 280.7987  79.2781 14.85445838563943"
      },
      "geometry": {
        "type": "Point",
        "coordinates": [
          -144.9331863349016,
          59.78980473866003
        ]
      }
    }
  ]
}